OBJECT_NAME,OBJECT_ID,EPOCH,MEAN_MOTION,ECCENTRICITY,INCLINATION,RA_OF_ASC_NODE,ARG_OF_PERICENTER,MEAN_ANOMALY,EPHEMERIS_TYPE,CLASSIFICATION_TYPE,NORAD_CAT_ID,ELEMENT_SET_NO,REV_AT_EPOCH,BSTAR,MEAN_MOTION_DOT,MEAN_MOTION_DDOT
LEMUR-2-ALISIA,2025-009DB,2026-07-23T05:14:59.504928,15.03260205,.00050364,97.6960,286.1551,108.8576,251.3196,0,U,62706,999,10557,.57393689E-3,.772E-4,0
LEMUR-2-ROUNDTRIPPER,2025-009DG,2026-07-23T05:14:19.937184,15.04319119,.00042786,97.7239,286.8567,48.2093,311.9498,0,U,62711,999,8304,.55868808E-3,.7728E-4,0
LEMUR-2-MYNAMEISJEFF,2025-009DH,2026-07-23T11:35:21.362496,15.04317939,.00042518,97.7285,287.5241,80.9119,279.2587,0,U,62712,999,8308,.58065293E-3,.8034E-4,0
LEMUR-2-LEIA-PHILIP,2025-052AN,2026-07-23T03:43:59.873376,14.97399507,.00051082,97.6784,95.4948,103.2748,256.9044,0,U,63246,999,7405,.84897625E-4,.929E-5,0
LEMUR-2-LIA-MARTIN,2025-052AQ,2026-07-23T03:31:10.167744,14.98066177,.00046398,97.6843,96.0188,70.2989,289.8734,0,U,63248,999,7406,.2996582E-3,.3487E-4,0
LEMUR-2-DELOITTE-1,2025-052BB,2026-07-23T12:42:04.217472,14.97832388,.00024459,97.6887,96.7258,52.2157,307.9287,0,U,63259,999,7413,.31916859E-3,.3695E-4,0
LEMUR-2-EMERSONROSE,2025-052BD,2026-07-23T03:13:48.474048,14.99336545,.00022045,97.6884,96.9686,40.2656,319.8730,0,U,63261,999,7412,.29084977E-3,.3496E-4,0
LEMUR-2-MARACHE-FRAN,2025-052BE,2026-07-23T11:38:56.350752,15.00359332,.00062451,97.6805,97.6885,220.2393,139.8369,0,U,63262,999,7420,.34896793E-3,.4323E-4,0
LEMUR-2-THEFALCONER,2025-052BG,2026-07-23T05:26:41.680320,14.97593224,.0001067,97.6806,96.0090,198.2455,161.8729,0,U,63264,999,7408,.27730487E-3,.3182E-4,0
LEMUR-2-UNTITLED-SC,2025-061A,2026-07-23T09:11:46.383072,15.13686102,.00199947,97.5659,179.4910,136.0950,224.1875,0,U,63351,999,7306,.18024601E-3,.3191E-4,0
LEMUR-2-ESPERANZA,2025-061B,2026-07-23T08:35:25.820736,15.13791134,.00196028,97.5667,179.5681,135.5337,224.7471,0,U,63352,999,7306,.19737277E-3,.3511E-4,0
LEMUR-2-KREMPEL-BRO2,2025-061C,2026-07-23T08:59:25.883232,15.14220632,.00206739,97.5715,180.1640,128.5364,231.7724,0,U,63353,999,7308,.19241176E-3,.3465E-4,0
LEMUR-2-THERMORAPTOR,2025-061D,2026-07-23T08:30:47.470176,15.14303110,.00204151,97.5719,180.2269,127.5828,232.7261,0,U,63354,999,7308,.21122441E-3,.3819E-4,0
LEMUR-2-NEUROSPICY,2025-061E,2026-07-23T07:45:58.294368,15.14421247,.00182454,97.5645,179.7941,130.5929,229.6894,0,U,63355,999,7308,.18376743E-3,.3321E-4,0
LEMUR-2-TILLINFINITY,2025-061F,2026-07-23T08:16:41.297088,15.15012196,.00196393,97.5631,180.1312,119.7564,240.5625,0,U,63356,999,7311,.27033226E-3,.5005E-4,0
LEMUR-2-KREMPEL-BRO1,2025-061G,2026-07-23T07:45:08.738784,15.14812963,.00202886,97.5632,180.0154,121.0381,239.2847,0,U,63357,999,7310,.185628E-3,.3397E-4,0
LEMUR-2-LANGER2SPACE,2025-061H,2026-07-23T08:33:46.419264,15.14506103,.00181363,97.5638,179.8483,128.8240,231.4614,0,U,63358,999,7309,.20147337E-3,.3657E-4,0
LEMUR-2-BALTO,2025-052BH,2026-07-23T06:27:53.123040,15.00412940,.00050242,97.6918,97.4751,291.9274,68.1415,0,U,63395,999,7417,.33428122E-3,.4144E-4,0
LEMUR-2-KRISH,2025-135AK,2026-07-23T07:37:53.721696,14.96495776,.00012894,97.7759,318.9566,111.5369,248.5989,0,U,64561,999,5932,.42740503E-3,.4798E-4,0
LEMUR-2-HUBBLE-4,2025-135AP,2026-07-23T07:32:02.789088,14.93701183,.00032578,97.7722,317.8046,143.4718,216.6724,0,U,64565,999,5926,.12660843E-3,.1283E-4,0
LEMUR-2-SEJONG-2,2025-135BL,2026-07-23T14:29:34.069920,14.96969966,.00044687,97.7713,319.3863,181.0001,179.1212,0,U,64586,999,5939,.5204713E-3,.5929E-4,0
LEMUR-2-HUBBLE-5,2025-135BT,2026-07-23T14:06:22.384512,14.94229636,.00050131,97.7743,318.7535,202.4078,157.6924,0,U,64840,999,5934,.14455918E-3,.1493E-4,0
LEMUR-2-KARENDARRELL,2025-135BU,2026-07-23T06:21:59.331456,15.00584303,.00130365,97.7722,320.4320,80.3476,279.9220,0,U,64841,999,5942,.60260232E-3,.7565E-4,0
LEMUR-2-LUCILLE-ROSE,2025-135BV,2026-07-23T13:44:01.046112,15.00570207,.00156298,97.7687,320.7717,163.9883,196.1838,0,U,65403,999,5409,.5887348E-3,.7392E-4,0
LEMUR-2-AFFIE-WAUWIE,2025-248C,2026-07-23T05:06:26.155008,15.28503726,.00093333,45.3913,279.5994,293.1633,66.8272,0,U,66295,999,4010,.74289393E-3,.20771E-3,0
OTTER SDM,2025-276N,2026-07-23T04:39:36.459072,15.20124446,.00048664,97.4194,277.0787,218.2161,141.8730,0,U,66678,999,3588,.28314695E-3,.6055E-4,0
LEMUR-2-STAS-GORBUK,2025-276W,2026-07-23T03:38:41.930016,15.19715909,.00042498,97.4227,277.0873,212.6305,147.4668,0,U,66686,999,3587,.26035118E-3,.5495E-4,0
LEMUR-2-TEODOR,2025-276DG,2026-07-23T03:53:05.443584,15.21398312,.00020686,97.4134,277.3795,82.7522,277.3949,0,U,66768,999,3591,.25368545E-3,.5623E-4,0
LEMUR-2-LAILA,2025-276DQ,2026-07-23T04:42:35.687232,15.21626275,.00027575,97.4157,277.5570,82.7172,277.4378,0,U,66776,999,3592,.24906829E-3,.5556E-4,0
